NORAD_CAT_ID,OBJECT_NAME,OBJECT_TYPE,EPOCH,MEAN_MOTION,ECCENTRICITY,INCLINATION,RA_OF_ASC_NODE,ARG_OF_PERICENTER,MEAN_ANOMALY,BSTAR,MEAN_MOTION_DOT,MEAN_MOTION_DDOT,TLE_LINE0,TLE_LINE1,TLE_LINE2,SEMIMAJOR_AXIS,PERIOD,APOGEE,PERIGEE,DECAYED
53542.0,STARLINK-4489,PAYLOAD,2023-03-27 02:36:34,15.08822116,4.19e-05,53.2169,226.0578,127.6745,232.4286,-0.00014422,-2.581e-05,0.0,0 STARLINK-4489,1 53542U 22101R   23086.10873430 -.00002581  00000-0 -14422-3 0  9994,2 53542  53.2169 226.0578 0000419 127.6745 232.4286 15.08822116 33471,6917.935,95.439,540.09,539.51,0.0
53542.0,STARLINK-4489,PAYLOAD,2023-03-27 13:44:17,15.08830876,0.0001321,53.2154,223.9775,89.0782,271.0361,0.00026557,3.94e-05,0.0,0 STARLINK-4489,1 53542U 22101R   23086.57242106  .00003940  00000-0  26557-3 0  9995,2 53542  53.2154 223.9775 0001321  89.0782 271.0361 15.08830876 34235,6917.908,95.438,540.687,538.859,0.0
53542.0,STARLINK-4489,PAYLOAD,2023-03-27 18:30:25,15.08841677,0.0001506,53.2169,223.0832,118.8861,241.2282,0.00015324,2.152e-05,0.0,0 STARLINK-4489,1 53542U 22101R   23086.77113405  .00002152  00000-0  15324-3 0  9990,2 53542  53.2169 223.0832 0001506 118.8861 241.2282 15.08841677 33578,6917.875,95.437,540.782,538.698,0.0
53542.0,STARLINK-4489,PAYLOAD,2023-03-28 13:35:04,15.08836502,0.0001079,53.2162,219.5194,74.8206,285.2905,0.00011448,1.534e-05,0.0,0 STARLINK-4489,1 53542U 22101R   23087.56602027  .00001534  00000-0  11448-3 0  9997,2 53542  53.2162 219.5194 0001079  74.8206 285.2905 15.08836502 33695,6917.891,95.438,540.503,539.01,0.0
53542.0,STARLINK-4489,PAYLOAD,2023-03-28 18:21:13,15.08851409,0.0001322,53.2167,218.6228,97.2907,262.8235,0.00046033,7.048e-05,0.0,0 STARLINK-4489,1 53542U 22101R   23087.76473562  .00007048  00000-0  46033-3 0  9993,2 53542  53.2167 218.6228 0001322  97.2907 262.8235 15.08851409 33720,6917.846,95.437,540.625,538.796,0.0
53542.0,STARLINK-4489,PAYLOAD,2023-03-29 02:18:09,15.08840189,9.76e-05,53.2162,217.1379,94.0498,266.0606,0.00033257,5.009e-05,0.0,0 STARLINK-4489,1 53542U 22101R   23088.09593961  .00005009  00000-0  33257-3 0  9995,2 53542  53.2162 217.1379 0000976  94.0498 266.0606 15.08840189 33776,6917.88,95.438,540.42,539.07,0.0
53542.0,STARLINK-4489,PAYLOAD,2023-03-29 13:25:51,15.08845111,0.0001338,53.2152,215.0566,95.018,265.0965,0.00042872,6.543e-05,0.0,0 STARLINK-4489,1 53542U 22101R   23088.55962120  .00006543  00000-0  42872-3 0  9990,2 53542  53.2152 215.0566 0001338  95.0180 265.0965 15.08845111 34534,6917.865,95.437,540.655,538.804,0.0
53542.0,STARLINK-4489,PAYLOAD,2023-03-29 15:01:14,15.08852764,0.0001449,53.2163,214.7579,106.6749,253.4402,0.00067158,0.0001042,0.0,0 STARLINK-4489,1 53542U 22101R   23088.62585943  .00010420  00000-0  67158-3 0  9995,2 53542  53.2163 214.7579 0001449 106.6749 253.4402 15.08852764 34549,6917.841,95.437,540.709,538.704,0.0
53542.0,STARLINK-4489,PAYLOAD,2023-03-30 11:41:15,15.08846284,0.0001444,53.2164,210.8925,123.3708,236.7422,0.00055286,8.523e-05,0.0,0 STARLINK-4489,1 53542U 22101R   23089.48698045  .00008523  00000-0  55286-3 0  9998,2 53542  53.2164 210.8925 0001444 123.3708 236.7422 15.08846284 33981,6917.861,95.437,540.725,538.727,0.0
53542.0,STARLINK-4489,PAYLOAD,2023-03-30 13:16:38,15.08848673,8.81e-05,53.2163,210.5971,94.0303,266.079,0.00061396,9.499e-05,0.0,0 STARLINK-4489,1 53542U 22101R   23089.55322115  .00009499  00000-0  61396-3 0  9990,2 53542  53.2163 210.5971 0000881  94.0303 266.0790 15.08848673 34683,6917.854,95.437,540.328,539.109,0.0
53542.0,STARLINK-4489,PAYLOAD,2023-03-31 11:32:02,15.08847111,0.0001424,53.2171,206.4322,128.3808,231.7312,0.00025971,3.849e-05,0.0,0 STARLINK-4489,1 53542U 22101R   23090.48057894  .00003849  00000-0  25971-3 0  9995,2 53542  53.2171 206.4322 0001424 128.3808 231.7312 15.08847111 34136,6917.859,95.437,540.709,538.739,0.0
53542.0,STARLINK-4489,PAYLOAD,2023-04-01 12:58:13,15.08815285,9.52e-05,53.217,201.675,107.5086,252.601,-0.00037431,-6.236e-05,0.0,0 STARLINK-4489,1 53542U 22101R   23091.54043282 -.00006236  00000-0 -37431-3 0  9998,2 53542  53.2170 201.6750 0000952 107.5086 252.6010 15.08815285 34290,6917.956,95.439,540.48,539.162,0.0
53542.0,STARLINK-4489,PAYLOAD,2023-04-01 17:44:22,15.08826356,8.09e-05,53.2168,200.782,109.3099,250.7981,-3.628e-05,-8.65e-06,0.0,0 STARLINK-4489,1 53542U 22101R   23091.73915186 -.00000865  00000-0 -36280-4 0  9994,2 53542  53.2168 200.7820 0000809 109.3099 250.7981 15.08826356 34321,6917.922,95.438,540.347,539.227,0.0
53542.0,STARLINK-4489,PAYLOAD,2023-04-02 12:49:00,15.0885428,8.18e-05,53.2164,197.2141,82.8446,277.2639,0.0014029,0.00022118,0.0,0 STARLINK-4489,1 53542U 22101R   23092.53403570  .00022118  00000-0  14029-2 0  9990,2 53542  53.2164 197.2141 0000818  82.8446 277.2639 15.08854280 34448,6917.837,95.437,540.268,539.136,0.0
53542.0,STARLINK-4489,PAYLOAD,2023-04-02 14:24:23,15.08861562,8.37e-05,53.2162,196.9172,77.5199,282.5887,0.0016492,0.00026072,0.0,0 STARLINK-4489,1 53542U 22101R   23092.60027455  .00026072  00000-0  16492-2 0  9991,2 53542  53.2162 196.9172 0000837  77.5199 282.5887 15.08861562 35146,6917.814,95.436,540.259,539.1,0.0
53542.0,STARLINK-4489,PAYLOAD,2023-04-02 15:59:46,15.08867449,8.61e-05,53.2163,196.6199,76.6481,283.4607,0.0017858,0.00028269,0.0,0 STARLINK-4489,1 53542U 22101R   23092.66651316  .00028269  00000-0  17858-2 0  9993,2 53542  53.2163 196.6199 0000861  76.6481 283.4607 15.08867449 35155,6917.796,95.436,540.257,539.066,0.0
53542.0,STARLINK-4489,PAYLOAD,2023-04-02 23:56:42,15.08854183,2.4e-05,53.2157,195.135,107.4953,252.6065,0.0007244,0.00011264,0.0,0 STARLINK-4489,1 53542U 22101R   23092.99771153  .00011264  00000-0  72440-3 0  9997,2 53542  53.2157 195.1350 0000240 107.4953 252.6065 15.08854183 34515,6917.837,95.437,539.868,539.536,0.0
53542.0,STARLINK-4489,PAYLOAD,2023-04-03 11:04:24,15.08844467,9.8e-05,53.2162,193.0516,92.7015,267.4089,0.00096118,0.00015044,0.0,0 STARLINK-4489,1 53542U 22101R   23093.46139567  .00015044  00000-0  96118-3 0  9995,2 53542  53.2162 193.0516 0000980  92.7015 267.4089 15.08844467 34589,6917.867,95.437,540.41,539.054,0.0
53542.0,STARLINK-4489,PAYLOAD,2023-04-04 10:55:11,15.08860486,0.0001143,53.2173,188.5929,87.107,273.0053,0.00082396,0.00012857,0.0,0 STARLINK-4489,1 53542U 22101R   23094.45499063  .00012857  00000-0  82396-3 0  9997,2 53542  53.2173 188.5929 0001143  87.1070 273.0053 15.08860486 34739,6917.818,95.436,540.473,538.892,0.0
53542.0,STARLINK-4489,PAYLOAD,2023-04-05 05:59:48,15.0885244,9.29e-05,53.2165,185.0254,71.7529,288.3564,0.00051478,7.917e-05,0.0,0 STARLINK-4489,1 53542U 22101R   23095.24986986  .00007917  00000-0  51478-3 0  9998,2 53542  53.2165 185.0254 0000929  71.7529 288.3564 15.08852440 34852,6917.842,95.437,540.35,539.065,0.0
53542.0,STARLINK-4489,PAYLOAD,2023-04-05 12:21:21,15.08841809,0.0001122,53.2158,183.8358,58.7137,301.3965,9.7427e-05,1.263e-05,0.0,0 STARLINK-4489,1 53542U 22101R   23095.51483230  .00001263  00000-0  97427-4 0  9995,2 53542  53.2158 183.8358 0001122  58.7137 301.3965 15.08841809 34893,6917.875,95.437,540.516,538.964,0.0
53542.0,STARLINK-4489,PAYLOAD,2023-04-06 12:12:10,15.08775541,0.0001542,53.2175,179.3741,98.5786,261.5381,0.0010746,0.00016826,0.0,0 STARLINK-4489,1 53542U 22101R   23096.50845264  .00016826  00000-0  10746-2 0  9992,2 53542  53.2175 179.3741 0001542  98.5786 261.5381 15.08775541 35042,6918.077,95.442,541.009,538.876,0.0
53542.0,STARLINK-4489,PAYLOAD,2023-04-07 05:41:23,15.08834432,0.0001135,53.2165,176.1022,101.8785,258.2334,8.6304e-05,1.086e-05,0.0,0 STARLINK-4489,1 53542U 22101R   23097.23707489  .00001086  00000-0  86304-4 0  9996,2 53542  53.2165 176.1022 0001135 101.8785 258.2334 15.08834432 35151,6917.897,95.438,540.548,538.977,0.0
53542.0,STARLINK-4489,PAYLOAD,2023-04-07 13:38:18,15.08842471,0.000116,53.2175,174.6168,98.7162,261.3961,0.00013774,1.905e-05,0.0,0 STARLINK-4489,1 53542U 22101R   23097.56826981  .00001905  00000-0  13774-3 0  9991,2 53542  53.2175 174.6168 0001160  98.7162 261.3961 15.08842471 35891,6917.873,95.437,540.54,538.935,0.0
53542.0,STARLINK-4489,PAYLOAD,2023-04-07 15:13:41,15.0884456,0.0001171,53.217,174.3178,106.3231,253.789,0.00015165,2.127e-05,0.0,0 STARLINK-4489,1 53542U 22101R   23097.63450773  .00002127  00000-0  15165-3 0  9994,2 53542  53.2170 174.3178 0001171 106.3231 253.7890 15.08844560 35212,6917.866,95.437,540.542,538.921,0.0
53542.0,STARLINK-4489,PAYLOAD,2023-04-08 03:56:47,15.08840051,0.0001559,53.217,171.9389,93.8755,266.2415,8.2957e-05,1.033e-05,0.0,0 STARLINK-4489,1 53542U 22101R   23098.16443408  .00001033  00000-0  82957-4 0  9999,2 53542  53.2170 171.9389 0001559  93.8755 266.2415 15.08840051 35291,6917.88,95.438,540.824,538.667,0.0
53542.0,STARLINK-4489,PAYLOAD,2023-04-08 10:18:19,15.08837143,0.0001435,53.2174,170.7493,106.8821,253.2328,3.9764e-05,3.45e-06,0.0,0 STARLINK-4489,1 53542U 22101R   23098.42939595  .00000345  00000-0  39764-4 0  9998,2 53542  53.2174 170.7493 0001435 106.8821 253.2328 15.08837143 36029,6917.889,95.438,540.747,538.761,0.0
53542.0,STARLINK-4489,PAYLOAD,2023-04-08 21:26:01,15.08835843,0.0001358,53.2175,168.6681,104.7282,255.3861,5.9768e-05,6.63e-06,0.0,0 STARLINK-4489,1 53542U 22101R   23098.89307721  .00000663  00000-0  59768-4 0  9998,2 53542  53.2175 168.6681 0001358 104.7282 255.3861 15.08835843 35408,6917.893,95.438,540.698,538.819,0.0
53542.0,STARLINK-4489,PAYLOAD,2023-04-09 13:19:53,15.08839581,0.0001335,53.2177,165.6946,104.3369,255.7771,5.2449e-05,5.47e-06,0.0,0 STARLINK-4489,1 53542U 22101R   23099.55547591  .00000547  00000-0  52449-4 0  9993,2 53542  53.2177 165.6946 0001335 104.3369 255.7771 15.08839581 36192,6917.882,95.438,540.67,538.823,0.0
53542.0,STARLINK-4489,PAYLOAD,2023-04-09 21:16:48,15.08844727,0.0001301,53.2177,164.208,89.9905,270.1236,-6.1285e-06,-3.85e-06,0.0,0 STARLINK-4489,1 53542U 22101R   23099.88667418 -.00000385  00000-0 -61285-5 0  9991,2 53542  53.2177 164.2080 0001301  89.9905 270.1236 15.08844727 36244,6917.866,95.437,540.631,538.831,0.0
